#aV2019 12 28  0  0  0.00000000     288 DD+AD WGS84 FIT  NGA
## 2085 518400.00000000   300.00000000 58845 0.0000000000000
+   32     1  2  3  4  5  6  7  8  9 10 11 12 13 14 15 16 17
+         18 19 20 21 22 23 24 25 26 27 28 29 30 31 32  0  0
+          0  0  0  0  0  0  0  0  0  0  0  0  0  0  0  0  0
+          0  0  0  0  0  0  0  0  0  0  0  0  0  0  0  0  0
+          0  0  0  0  0  0  0  0  0  0  0  0  0  0  0  0  0
++         2  2  2  2  2  2  2  2  2  2  2  2  2  2  2  2  2
++         2  2  2  2  2  2  2  2  2  2  2  2  2  2  2  0  0
++         0  0  0  0  0  0  0  0  0  0  0  0  0  0  0  0  0
++         0  0  0  0  0  0  0  0  0  0  0  0  0  0  0  0  0
++         0  0  0  0  0  0  0  0  0  0  0  0  0  0  0  0  0
%c cc cc ccc ccc cccc cccc cccc cccc ccccc ccccc ccccc ccccc
%c cc cc ccc ccc cccc cccc cccc cccc ccccc ccccc ccccc ccccc
%f  0.0000000  0.000000000  0.00000000000  0.000000000000000
%f  0.0000000  0.000000000  0.00000000000  0.000000000000000
%i    0    0    0    0      0      0      0      0         0
%i    0    0    0    0      0      0      0      0         0
/*      NGA, ST. LOUIS,MO.                                  
/*   EPHEMERIS COMPUTED FROM 2 DAYS OF DATA                 
/*   EPOCHA v5 SMOOTHER                                     
/*   G1762 IERS2010 SATAF SATAPC                            
*  2019 12 28 12 40  0.00000000
P  1 -12003.021715  20955.265094 -10881.081114   -244.234009                    
V  1 -11472.077499   7609.806839  28141.950507     -0.122379                    
P  2  21014.767153 -12593.263963  -9483.219384   -375.063134                    
V  2  -6815.369270  11429.267673 -28504.610373     -0.073045                    
P  3  -2314.997110  15092.842498 -21795.761253    -61.222708                    
V  3 -26354.877354  -7913.080004  -2600.306950     -0.071954                    
P  4  -1858.638858  24753.453565  -9417.593087    -26.411843                    
V  4  -4863.420121 -11247.807198 -28603.523497     -0.050750                    
P  5  21992.237644  -4460.384759  14220.053046     -5.306157                    
V  5  16984.591849   7009.781063 -23650.133362     -0.005159                    
P  6  18648.486838    -18.807085 -18873.526855   -166.474778                    
V  6 -16764.381826  17236.649305 -16506.523841     -0.107277                    
P  7   4033.988285  16247.812486  20799.163690   -179.733354                    
V  7 -19922.335947  16593.156087  -9697.992685     -0.082318                    
P  8  -7877.011548  18269.931512  17513.060291    -18.286727                    
V  8  -6899.132921 -21204.526648  19279.993416     -0.012966                    
P  9   6553.279668  25729.355861    313.006577   -119.096256                    
V  9  -2910.036844   1193.374396 -31563.785022     -0.091862                    
P 10 -23172.427365 -11643.281835   6346.912164   -188.861917                    
V 10   8265.251180     22.753194  30327.770560     -0.139482                    
P 11  -7811.242474  25486.149477  -2267.808619   -406.417661                    
V 11  -4611.141322    712.585693  30263.611108      0.109046                    
P 12   7546.245966 -12978.111080 -22121.192853    168.428648                    
V 12  25587.435524  10104.703497   2995.109288     -0.040532                    
P 13  13182.263428 -10238.084667  20517.662717    -23.733227                    
V 13   3573.055043  26108.699327  10741.828809      0.025016                    
P 14 -15421.844611  -4922.579778 -20763.133184    -42.188189                    
V 14  -3224.380179 -26903.694934   8459.521233      0.022523                    
P 15   6265.949087 -19582.572417  16300.475620   -262.554313                    
V 15   9528.415267  19497.913156  19785.760389      0.026393                    
P 16 -22767.277644    754.465452  13829.104453   -107.652140                    
V 16 -15836.830481  -7997.053420 -24842.411725     -0.039373                    
P 17  13503.581819  16019.478184 -15934.939983    188.679916                    
V 17   2049.647181  20913.568885  22108.703574      0.067288                    
P 18 -16699.624799  20422.784757  -3104.489468    109.695681                    
V 18  -4447.477536    349.999471  31409.490731      0.025620                    
P 19  14939.375229   8129.509685 -20689.809013   -220.217832                    
V 19   2432.551749  25450.921314  11937.972557      0.051608                    
P 20 -16240.706574 -14351.938669  15389.100743    527.720855                    
V 20  19844.661276    900.318313  21445.315939      0.000530                    
P 21  -7294.415994 -14764.823375  21667.830191    -64.153650                    
V 21  17987.097627 -18337.972154  -6471.080728      0.056724                    
P 22 -10948.125001  13000.844246 -20168.881807   -779.674738                    
V 22 -25361.010051  -6858.852132   9350.862489     -0.016880                    
P 23    416.486158  25033.604768  -7914.051860   -146.738600                    
V 23  -6040.528949  -9458.932314 -29347.762945      0.024137                    
P 24  12424.233919 -21793.349843  -8331.265239     -6.818618                    
V 24   9802.689919  -5107.996838  28972.190603     -0.004824                    
P 25  -7803.983489 -16523.736373 -19587.943732    -16.943384                    
V 25  23505.608139   6217.867700 -14513.384854      0.004583                    
P 26 -25993.557825  -3538.115161   4812.479254    115.290025                    
V 26  -5119.135705  -4445.401453 -30567.734120      0.081008                    
P 27 -13479.892693   6679.745095  21743.856087   -164.089539                    
V 27  -6729.084276 -27049.109870   4425.067738     -0.115043                    
P 28  22324.184488  13304.834360   5716.802509    748.338373                    
V 28  -6838.058792   -459.679394  31168.148085     -0.019271                    
P 29  -4237.596826 -26208.481404     67.677173      6.967667                    
V 29   2003.632838   -444.264705 -32307.139179     -0.097259                    
P 30  14145.273235   8100.793918  21026.819999   -116.181423                    
V 30 -19804.602456  17890.065821   6244.327114     -0.086922                    
P 31 -20418.444163   1924.994309 -17153.661229    -12.787270                    
V 31  15186.008727 -15366.940165 -19378.789548     -0.025290                    
P 32 -15192.892318 -14648.220466 -16146.362988    168.721141                    
V 32  -2893.439374 -20460.425373  21070.493484      0.110479                    
EOF
